[{"OBJECT_NAME":"TIANMU-1 08","OBJECT_ID":"2023-101B","EPOCH":"2026-03-07T00:03:25.475616","MEAN_MOTION":15.29204229,"ECCENTRICITY":0.00063808,"INCLINATION":97.2717,"RA_OF_ASC_NODE":118.7901,"ARG_OF_PERICENTER":134.2174,"MEAN_ANOMALY":225.9592,"EPHEMERIS_TYPE":0,"CLASSIFICATION_TYPE":"U","NORAD_CAT_ID":57400,"ELEMENT_SET_NO":999,"REV_AT_EPOCH":14602,"BSTAR":1.4774513e-5,"MEAN_MOTION_DOT":3.46e-6,"MEAN_MOTION_DDOT":0},{"OBJECT_NAME":"STARLINK-35418","OBJECT_ID":"2025-223AB","EPOCH":"2026-03-09T21:45:51.479712","MEAN_MOTION":15.30212079,"ECCENTRICITY":6.969e-5,"INCLINATION":53.1579,"RA_OF_ASC_NODE":293.5347,"ARG_OF_PERICENTER":79.5938,"MEAN_ANOMALY":280.5142,"EPHEMERIS_TYPE":0,"CLASSIFICATION_TYPE":"U","NORAD_CAT_ID":65879,"ELEMENT_SET_NO":999,"REV_AT_EPOCH":2423,"BSTAR":0.001027863,"MEAN_MOTION_DOT":0.00030218,"MEAN_MOTION_DDOT":0}]
